<?xml version="1.0" encoding="UTF-8"?>
<ndm xmlns:xsi="http://www.w3.org/2001/XMLSchema-instance" xsi:noNamespaceSchemaLocation="https://sanaregistry.org/r/ndmxml_unqualified/ndmxml-2.0.0-master-2.0.xsd">
<omm id="CCSDS_OMM_VERS" version="2.0">
<header><CREATION_DATE/><ORIGINATOR/></header><body><segment><metadata><OBJECT_NAME>KUIPER-00016</OBJECT_NAME><OBJECT_ID>2025-088J</OBJECT_ID><CENTER_NAME>EARTH</CENTER_NAME><REF_FRAME>TEME</REF_FRAME><TIME_SYSTEM>UTC</TIME_SYSTEM><MEAN_ELEMENT_THEORY>SGP4</MEAN_ELEMENT_THEORY></metadata><data><meanElements><EPOCH>2025-07-26T18:46:42.032352</EPOCH><MEAN_MOTION>15.12793737</MEAN_MOTION><ECCENTRICITY>.0010136</ECCENTRICITY><INCLINATION>51.8830</INCLINATION><RA_OF_ASC_NODE>33.7049</RA_OF_ASC_NODE><ARG_OF_PERICENTER>54.8251</ARG_OF_PERICENTER><MEAN_ANOMALY>305.3673</MEAN_ANOMALY></meanElements><tleParameters><EPHEMERIS_TYPE>0</EPHEMERIS_TYPE><CLASSIFICATION_TYPE>U</CLASSIFICATION_TYPE><NORAD_CAT_ID>63732</NORAD_CAT_ID><ELEMENT_SET_NO>999</ELEMENT_SET_NO><REV_AT_EPOCH>1383</REV_AT_EPOCH><BSTAR>.69543E-3</BSTAR><MEAN_MOTION_DOT>.12088E-3</MEAN_MOTION_DOT><MEAN_MOTION_DDOT>0</MEAN_MOTION_DDOT></tleParameters></data></segment></body></omm>
<omm id="CCSDS_OMM_VERS" version="2.0">
<header><CREATION_DATE/><ORIGINATOR/></header><body><segment><metadata><OBJECT_NAME>KUIPER-00018</OBJECT_NAME><OBJECT_ID>2025-088K</OBJECT_ID><CENTER_NAME>EARTH</CENTER_NAME><REF_FRAME>TEME</REF_FRAME><TIME_SYSTEM>UTC</TIME_SYSTEM><MEAN_ELEMENT_THEORY>SGP4</MEAN_ELEMENT_THEORY></metadata><data><meanElements><EPOCH>2025-07-27T06:00:02.000160</EPOCH><MEAN_MOTION>15.29850785</MEAN_MOTION><ECCENTRICITY>.0006201</ECCENTRICITY><INCLINATION>51.8733</INCLINATION><RA_OF_ASC_NODE>27.0396</RA_OF_ASC_NODE><ARG_OF_PERICENTER>67.4485</ARG_OF_PERICENTER><MEAN_ANOMALY>61.4094</MEAN_ANOMALY></meanElements><tleParameters><EPHEMERIS_TYPE>0</EPHEMERIS_TYPE><CLASSIFICATION_TYPE>U</CLASSIFICATION_TYPE><NORAD_CAT_ID>63733</NORAD_CAT_ID><ELEMENT_SET_NO>999</ELEMENT_SET_NO><REV_AT_EPOCH>1396</REV_AT_EPOCH><BSTAR>-.86954E-2</BSTAR><MEAN_MOTION_DOT>-.247302E-2</MEAN_MOTION_DOT><MEAN_MOTION_DDOT>0</MEAN_MOTION_DDOT></tleParameters></data></segment></body></omm>
<omm id="CCSDS_OMM_VERS" version="2.0">
<header><CREATION_DATE/><ORIGINATOR/></header><body><segment><metadata><OBJECT_NAME>KUIPER-00019</OBJECT_NAME><OBJECT_ID>2025-088L</OBJECT_ID><CENTER_NAME>EARTH</CENTER_NAME><REF_FRAME>TEME</REF_FRAME><TIME_SYSTEM>UTC</TIME_SYSTEM><MEAN_ELEMENT_THEORY>SGP4</MEAN_ELEMENT_THEORY></metadata><data><meanElements><EPOCH>2025-07-27T04:51:08.723520</EPOCH><MEAN_MOTION>15.36655712</MEAN_MOTION><ECCENTRICITY>.000406</ECCENTRICITY><INCLINATION>51.8693</INCLINATION><RA_OF_ASC_NODE>26.9695</RA_OF_ASC_NODE><ARG_OF_PERICENTER>81.4141</ARG_OF_PERICENTER><MEAN_ANOMALY>278.7305</MEAN_ANOMALY></meanElements><tleParameters><EPHEMERIS_TYPE>0</EPHEMERIS_TYPE><CLASSIFICATION_TYPE>U</CLASSIFICATION_TYPE><NORAD_CAT_ID>63734</NORAD_CAT_ID><ELEMENT_SET_NO>999</ELEMENT_SET_NO><REV_AT_EPOCH>1396</REV_AT_EPOCH><BSTAR>-.33802E-2</BSTAR><MEAN_MOTION_DOT>-.121362E-2</MEAN_MOTION_DOT><MEAN_MOTION_DDOT>0</MEAN_MOTION_DDOT></tleParameters></data></segment></body></omm>
<omm id="CCSDS_OMM_VERS" version="2.0">
<header><CREATION_DATE/><ORIGINATOR/></header><body><segment><metadata><OBJECT_NAME>KUIPER-00020</OBJECT_NAME><OBJECT_ID>2025-088M</OBJECT_ID><CENTER_NAME>EARTH</CENTER_NAME><REF_FRAME>TEME</REF_FRAME><TIME_SYSTEM>UTC</TIME_SYSTEM><MEAN_ELEMENT_THEORY>SGP4</MEAN_ELEMENT_THEORY></metadata><data><meanElements><EPOCH>2025-07-27T06:00:02.000160</EPOCH><MEAN_MOTION>15.24877778</MEAN_MOTION><ECCENTRICITY>.0007711</ECCENTRICITY><INCLINATION>51.8775</INCLINATION><RA_OF_ASC_NODE>27.7348</RA_OF_ASC_NODE><ARG_OF_PERICENTER>60.5717</ARG_OF_PERICENTER><MEAN_ANOMALY>64.3400</MEAN_ANOMALY></meanElements><tleParameters><EPHEMERIS_TYPE>0</EPHEMERIS_TYPE><CLASSIFICATION_TYPE>U</CLASSIFICATION_TYPE><NORAD_CAT_ID>63735</NORAD_CAT_ID><ELEMENT_SET_NO>999</ELEMENT_SET_NO><REV_AT_EPOCH>1416</REV_AT_EPOCH><BSTAR>-.19297E-1</BSTAR><MEAN_MOTION_DOT>-.458401E-2</MEAN_MOTION_DOT><MEAN_MOTION_DDOT>0</MEAN_MOTION_DDOT></tleParameters></data></segment></body></omm>
<omm id="CCSDS_OMM_VERS" version="2.0">
<header><CREATION_DATE/><ORIGINATOR/></header><body><segment><metadata><OBJECT_NAME>KUIPER-00021</OBJECT_NAME><OBJECT_ID>2025-088N</OBJECT_ID><CENTER_NAME>EARTH</CENTER_NAME><REF_FRAME>TEME</REF_FRAME><TIME_SYSTEM>UTC</TIME_SYSTEM><MEAN_ELEMENT_THEORY>SGP4</MEAN_ELEMENT_THEORY></metadata><data><meanElements><EPOCH>2025-07-27T06:00:02.000160</EPOCH><MEAN_MOTION>15.22696710</MEAN_MOTION><ECCENTRICITY>.0005587</ECCENTRICITY><INCLINATION>51.8719</INCLINATION><RA_OF_ASC_NODE>28.1963</RA_OF_ASC_NODE><ARG_OF_PERICENTER>71.4818</ARG_OF_PERICENTER><MEAN_ANOMALY>212.0157</MEAN_ANOMALY></meanElements><tleParameters><EPHEMERIS_TYPE>0</EPHEMERIS_TYPE><CLASSIFICATION_TYPE>U</CLASSIFICATION_TYPE><NORAD_CAT_ID>63736</NORAD_CAT_ID><ELEMENT_SET_NO>999</ELEMENT_SET_NO><REV_AT_EPOCH>1398</REV_AT_EPOCH><BSTAR>-.3177E-1</BSTAR><MEAN_MOTION_DOT>-.701909E-2</MEAN_MOTION_DOT><MEAN_MOTION_DDOT>0</MEAN_MOTION_DDOT></tleParameters></data></segment></body></omm>
<omm id="CCSDS_OMM_VERS" version="2.0">
<header><CREATION_DATE/><ORIGINATOR/></header><body><segment><metadata><OBJECT_NAME>KUIPER-00023</OBJECT_NAME><OBJECT_ID>2025-088P</OBJECT_ID><CENTER_NAME>EARTH</CENTER_NAME><REF_FRAME>TEME</REF_FRAME><TIME_SYSTEM>UTC</TIME_SYSTEM><MEAN_ELEMENT_THEORY>SGP4</MEAN_ELEMENT_THEORY></metadata><data><meanElements><EPOCH>2025-07-27T06:00:02.000160</EPOCH><MEAN_MOTION>15.20219727</MEAN_MOTION><ECCENTRICITY>.0009557</ECCENTRICITY><INCLINATION>51.8771</INCLINATION><RA_OF_ASC_NODE>28.8240</RA_OF_ASC_NODE><ARG_OF_PERICENTER>70.2612</ARG_OF_PERICENTER><MEAN_ANOMALY>275.0775</MEAN_ANOMALY></meanElements><tleParameters><EPHEMERIS_TYPE>0</EPHEMERIS_TYPE><CLASSIFICATION_TYPE>U</CLASSIFICATION_TYPE><NORAD_CAT_ID>63737</NORAD_CAT_ID><ELEMENT_SET_NO>999</ELEMENT_SET_NO><REV_AT_EPOCH>1427</REV_AT_EPOCH><BSTAR>-.31339E-1</BSTAR><MEAN_MOTION_DOT>-.641085E-2</MEAN_MOTION_DOT><MEAN_MOTION_DDOT>0</MEAN_MOTION_DDOT></tleParameters></data></segment></body></omm>
<omm id="CCSDS_OMM_VERS" version="2.0">
<header><CREATION_DATE/><ORIGINATOR/></header><body><segment><metadata><OBJECT_NAME>KUIPER-00024</OBJECT_NAME><OBJECT_ID>2025-088Q</OBJECT_ID><CENTER_NAME>EARTH</CENTER_NAME><REF_FRAME>TEME</REF_FRAME><TIME_SYSTEM>UTC</TIME_SYSTEM><MEAN_ELEMENT_THEORY>SGP4</MEAN_ELEMENT_THEORY></metadata><data><meanElements><EPOCH>2025-07-26T20:59:50.133120</EPOCH><MEAN_MOTION>15.38426918</MEAN_MOTION><ECCENTRICITY>.0001483</ECCENTRICITY><INCLINATION>51.8725</INCLINATION><RA_OF_ASC_NODE>27.8133</RA_OF_ASC_NODE><ARG_OF_PERICENTER>105.8189</ARG_OF_PERICENTER><MEAN_ANOMALY>254.2961</MEAN_ANOMALY></meanElements><tleParameters><EPHEMERIS_TYPE>0</EPHEMERIS_TYPE><CLASSIFICATION_TYPE>U</CLASSIFICATION_TYPE><NORAD_CAT_ID>63738</NORAD_CAT_ID><ELEMENT_SET_NO>999</ELEMENT_SET_NO><REV_AT_EPOCH>1439</REV_AT_EPOCH><BSTAR>.46535E-3</BSTAR><MEAN_MOTION_DOT>.17564E-3</MEAN_MOTION_DOT><MEAN_MOTION_DDOT>0</MEAN_MOTION_DDOT></tleParameters></data></segment></body></omm>
<omm id="CCSDS_OMM_VERS" version="2.0">
<header><CREATION_DATE/><ORIGINATOR/></header><body><segment><metadata><OBJECT_NAME>KUIPER-00025</OBJECT_NAME><OBJECT_ID>2025-088R</OBJECT_ID><CENTER_NAME>EARTH</CENTER_NAME><REF_FRAME>TEME</REF_FRAME><TIME_SYSTEM>UTC</TIME_SYSTEM><MEAN_ELEMENT_THEORY>SGP4</MEAN_ELEMENT_THEORY></metadata><data><meanElements><EPOCH>2025-07-26T22:00:01.999584</EPOCH><MEAN_MOTION>15.29575227</MEAN_MOTION><ECCENTRICITY>.0006739</ECCENTRICITY><INCLINATION>51.8713</INCLINATION><RA_OF_ASC_NODE>28.7177</RA_OF_ASC_NODE><ARG_OF_PERICENTER>60.3847</ARG_OF_PERICENTER><MEAN_ANOMALY>323.8171</MEAN_ANOMALY></meanElements><tleParameters><EPHEMERIS_TYPE>0</EPHEMERIS_TYPE><CLASSIFICATION_TYPE>U</CLASSIFICATION_TYPE><NORAD_CAT_ID>63739</NORAD_CAT_ID><ELEMENT_SET_NO>999</ELEMENT_SET_NO><REV_AT_EPOCH>540</REV_AT_EPOCH><BSTAR>.15176E-2</BSTAR><MEAN_MOTION_DOT>.44056E-3</MEAN_MOTION_DOT><MEAN_MOTION_DDOT>0</MEAN_MOTION_DDOT></tleParameters></data></segment></body></omm>

</ndm>
