KUIPER-00016            
1 63732U 25088J   25207.78243093  .00012088  00000+0  69543-3 0  9994
2 63732  51.8830  33.7049 0010136  54.8251 305.3673 15.12793737 13837
KUIPER-00018            
1 63733U 25088K   25208.25002315 -.00247302  00000+0 -86954-2 0  9993
2 63733  51.8733  27.0396 0006201  67.4485  61.4094 15.29850785 13964
KUIPER-00019            
1 63734U 25088L   25208.20218430 -.00121362  00000+0 -33802-2 0  9997
2 63734  51.8693  26.9695 0004060  81.4141 278.7305 15.36655712 13965
KUIPER-00020            
1 63735U 25088M   25208.25002315 -.00458401  00000+0 -19297-1 0  9994
2 63735  51.8775  27.7348 0007711  60.5717  64.3400 15.24877778 14167
KUIPER-00021            
1 63736U 25088N   25208.25002315 -.00701909  00000+0 -31770-1 0  9999
2 63736  51.8719  28.1963 0005587  71.4818 212.0157 15.22696710 13989
KUIPER-00023            
1 63737U 25088P   25208.25002315 -.00641085  00000+0 -31339-1 0  9999
2 63737  51.8771  28.8240 0009557  70.2612 275.0775 15.20219727 14278
KUIPER-00024            
1 63738U 25088Q   25207.87488580  .00017564  00000+0  46535-3 0  9992
2 63738  51.8725  27.8133 0001483 105.8189 254.2961 15.38426918 14392
KUIPER-00025            
1 63739U 25088R   25207.91668981  .00044056  00000+0  15176-2 0  9995
2 63739  51.8713  28.7177 0006739  60.3847 323.8171 15.29575227  5409
